*******************************************************************************
Ephemeris / WWW_USER Tue Mar 27 20:23:53 2018 Pasadena, USA      / Horizons    
*******************************************************************************
Target body name: Titan (606)                     {source: sat389}
Center body name: Solar System Barycenter (0)     {source: DE431mx}
Center-site name: BODY CENTER
*******************************************************************************
Start time      : A.D. 2000-Jan-01 00:00:00.0000 TDB
Stop  time      : A.D. 2010-Jan-01 00:00:00.0000 TDB
Step-size       : 7200 minutes
*******************************************************************************
Center geodetic : 0.00000000,0.00000000,0.0000000 {E-lon(deg),Lat(deg),Alt(km)}
Center cylindric: 0.00000000,0.00000000,0.0000000 {E-lon(deg),Dxy(km),Dz(km)}
Center radii    : (undefined)                                                  
Output units    : AU-D                                                         
Output type     : GEOMETRIC cartesian states
Output format   : 2 (position and velocity)
Reference frame : ICRF/J2000.0                                                 
Coordinate systm: Ecliptic and Mean Equinox of Reference Epoch                 
*******************************************************************************
JDTDB
   X     Y     Z
   VX    VY    VZ
*******************************************************************************
$$SOE
2452594.500000000 = A.D. 2002-Nov-16 00:00:00.0000 TDB 
   8.883872592320535E-01  8.993719729265234E+00 -1.954371223878594E-01
  -8.923932924576392E-03  1.421533839185740E-03  6.917987990150001E-05
2452599.500000000 = A.D. 2002-Nov-21 00:00:00.0000 TDB 
   8.488586446046898E-01  8.989150961273499E+00 -1.895924459395374E-01
  -5.581012971181661E-03 -2.272081270610713E-03  1.636018901257005E-03
2452604.500000000 = A.D. 2002-Nov-26 00:00:00.0000 TDB 
   8.314743367737966E-01  8.985406513840701E+00 -1.864002432996925E-01
  -2.946268663556606E-03  1.735959898304697E-03 -7.001594332910523E-04
2452609.500000000 = A.D. 2002-Dec-01 00:00:00.0000 TDB 
   8.033264070498188E-01  9.000041995172866E+00 -1.916740446966196E-01
  -8.433500633122318E-03  2.312697396456123E-03 -4.661199703657389E-04
2452614.500000000 = A.D. 2002-Dec-06 00:00:00.0000 TDB 
   7.613452663754573E-01  8.999093896381780E+00 -1.875918629656150E-01
  -6.706062655213728E-03 -2.176946441777465E-03  1.670482456585211E-03
2452619.500000000 = A.D. 2002-Dec-11 00:00:00.0000 TDB 
   7.407186209149373E-01  8.991815774127087E+00 -1.823940465724333E-01
  -2.622371682721981E-03  6.092972851947327E-04 -1.782346195935158E-04
2452624.500000000 = A.D. 2002-Dec-16 00:00:00.0000 TDB 
   7.175377678162820E-01  9.004755575997148E+00 -1.874191213315144E-01
  -7.560998417773762E-03  2.973086214805955E-03 -9.200254852342576E-04
2452629.500000000 = A.D. 2002-Dec-21 00:00:00.0000 TDB 
   6.747774944960353E-01  9.007921650882428E+00 -1.855188081841939E-01
  -7.718520678219710E-03 -1.748979273352994E-03  1.522191086612392E-03
2452634.500000000 = A.D. 2002-Dec-26 00:00:00.0000 TDB 
   6.498052498118833E-01  8.998435374622366E+00 -1.788903297356447E-01
  -2.762900355003959E-03 -5.114249967550522E-04  3.863901705313230E-04
2452639.500000000 = A.D. 2002-Dec-31 00:00:00.0000 TDB 
   6.307153183004178E-01  9.008137949473818E+00 -1.827852096695853E-01
  -6.416555556263494E-03  3.281353377209365E-03 -1.219098500666507E-03
2452644.500000000 = A.D. 2003-Jan-05 00:00:00.0000 TDB 
   5.890003380901657E-01  9.015342653234944E+00 -1.832075235857277E-01
  -8.500679302686030E-03 -1.043555177751567E-03  1.208108739269363E-03
2452649.500000000 = A.D. 2003-Jan-10 00:00:00.0000 TDB 
   5.591652586267207E-01  9.005185733745133E+00 -1.758903951102615E-01
  -3.322258380888505E-03 -1.476482473608727E-03  9.120033766660777E-04
2452654.500000000 = A.D. 2003-Jan-15 00:00:00.0000 TDB 
   5.426861851618799E-01  9.010560624742370E+00 -1.779467580487269E-01
  -5.168684670428288E-03  3.164580107342148E-03 -1.309126260260014E-03
2452659.500000000 = A.D. 2003-Jan-20 00:00:00.0000 TDB 
   5.037561861252691E-01  9.021131419247478E+00 -1.805162053950017E-01
  -8.954305332144792E-03 -1.449032241371636E-04  7.619977714476803E-04
2452664.500000000 = A.D. 2003-Jan-25 00:00:00.0000 TDB 
   4.691597092179328E-01  9.011862711444966E+00 -1.733244066474181E-01
  -4.202107085204090E-03 -2.174347163938984E-03  1.331393704921038E-03
2452669.500000000 = A.D. 2003-Jan-30 00:00:00.0000 TDB 
   4.534541948942619E-01  9.012431270143500E+00 -1.731142707313304E-01
  -4.016164405009421E-03  2.622332194577831E-03 -1.170293722164687E-03
2452674.500000000 = A.D. 2003-Feb-04 00:00:00.0000 TDB 
   4.187072761162590E-01  9.025154940373243E+00 -1.773428193922083E-01
  -9.009546670395571E-03  8.362546222154913E-04  2.340833865966043E-04
2452679.500000000 = A.D. 2003-Feb-09 00:00:00.0000 TDB 
   3.800415205449299E-01  9.018178061540484E+00 -1.710684520840085E-01
  -5.275495411039622E-03 -2.538589040555442E-03  1.597794125659740E-03
2452684.500000000 = A.D. 2003-Feb-14 00:00:00.0000 TDB 
   3.632087647976296E-01  9.014120393065193E+00 -1.684973165389870E-01
  -3.144886910907533E-03  1.732798531750897E-03 -8.246049193071591E-04
2452689.500000000 = A.D. 2003-Feb-19 00:00:00.0000 TDB 
   3.334680182555156E-01  9.027395728228601E+00 -1.736401399259478E-01
  -8.637351637942091E-03  1.767901851259931E-03 -3.104066854469320E-04
2452694.500000000 = A.D. 2003-Feb-24 00:00:00.0000 TDB 
   2.919379566864393E-01  9.023801619298034E+00 -1.689645626220337E-01
  -6.406114413172832E-03 -2.545706844264489E-03  1.685657110383567E-03
2452699.500000000 = A.D. 2003-Mar-01 00:00:00.0000 TDB 
   2.722919422845521E-01  9.015893735266202E+00 -1.642664047469490E-01
  -2.685831390932957E-03  6.353058750422070E-04 -3.310045294397188E-04
2452704.500000000 = A.D. 2003-Mar-06 00:00:00.0000 TDB 
   2.476502566318833E-01  9.027967070747334E+00 -1.694280456865825E-01
  -7.863632264809654E-03  2.508554475861592E-03 -7.959411430644903E-04
2452709.500000000 = A.D. 2003-Mar-11 00:00:00.0000 TDB 
   2.048480666092216E-01  9.028399329622724E+00 -1.668400391751473E-01
  -7.460859872984670E-03 -2.209690874397405E-03  1.589083044622385E-03
2452714.500000000 = A.D. 2003-Mar-16 00:00:00.0000 TDB 
   1.811330805940987E-01  9.017869644594398E+00 -1.605245655455996E-01
  -2.691177117460932E-03 -5.038756678288676E-04  2.298958297509205E-04
2452719.500000000 = A.D. 2003-Mar-21 00:00:00.0000 TDB 
   1.609204963108988E-01  9.027112622908515E+00 -1.647989984571367E-01
  -6.779460159954100E-03  2.928375126388145E-03 -1.146576713576960E-03
2452724.500000000 = A.D. 2003-Mar-26 00:00:00.0000 TDB 
   1.186496833052436E-01  9.031666131741403E+00 -1.645251680071316E-01
  -8.317644233585325E-03 -1.577126453239785E-03  1.320064788697256E-03
2452729.500000000 = A.D. 2003-Mar-31 00:00:00.0000 TDB 
   9.017297417536796E-02  9.020010896019734E+00 -1.572957024206559E-01
  -3.134916878488493E-03 -1.527255014065599E-03  7.743083158400516E-04
2452734.500000000 = A.D. 2003-Apr-05 00:00:00.0000 TDB 
   7.306192527941061E-02  9.025182199175262E+00 -1.599116884645384E-01
  -5.538551495852299E-03  2.937525434370801E-03 -1.300825338041482E-03
2452739.500000000 = A.D. 2003-Apr-10 00:00:00.0000 TDB 
   3.311295943452032E-02  9.033355076416154E+00 -1.618695732787727E-01
  -8.871807898085017E-03 -7.240914314700574E-04  9.075223451878266E-04
2452744.500000000 = A.D. 2003-Apr-15 00:00:00.0000 TDB 
  -2.022096021589886E-04  9.022145940208450E+00 -1.545290520219608E-01
  -3.931389455264598E-03 -2.311088441984414E-03  1.229966909198115E-03
2452749.500000000 = A.D. 2003-Apr-20 00:00:00.0000 TDB 
  -1.597520043547986E-02  9.022580732277497E+00 -1.549696981941431E-01
  -4.335013150592450E-03  2.513089660982021E-03 -1.227728171085184E-03
2452754.500000000 = A.D. 2003-Apr-25 00:00:00.0000 TDB 
  -5.207949767888100E-02  9.033304341522031E+00 -1.587581234014541E-01
  -9.044128281358458E-03  2.460004254410964E-04  3.969844729415126E-04
2452759.500000000 = A.D. 2003-Apr-30 00:00:00.0000 TDB 
  -8.970571551349815E-02  9.024006928058643E+00 -1.521143415262035E-01
  -4.959686021114863E-03 -2.775894638791771E-03  1.543963083113912E-03
2452764.500000000 = A.D. 2003-May-05 00:00:00.0000 TDB 
  -1.060532789774579E-01  9.019697584328046E+00 -1.501869898141483E-01
  -3.363179130685168E-03  1.711425580346889E-03 -9.371880000523688E-04
2452769.500000000 = A.D. 2003-May-10 00:00:00.0000 TDB 
  -1.373035378907255E-01  9.031461541673046E+00 -1.551263070496654E-01
  -8.792296107081713E-03  1.206387478725910E-03 -1.503403620233112E-04
2452774.500000000 = A.D. 2003-May-15 00:00:00.0000 TDB 
  -1.781732114542719E-01  9.025272256150384E+00 -1.499014478645445E-01
  -6.084689731445029E-03 -2.886284333888685E-03  1.684729653628646E-03
2452779.500000000 = A.D. 2003-May-20 00:00:00.0000 TDB 
  -1.968686232685481E-01  9.016834926090903E+00 -1.457488638865667E-01
  -2.773309026378017E-03  6.572845766977277E-04 -4.787249074829137E-04
2452784.500000000 = A.D. 2003-May-25 00:00:00.0000 TDB 
  -2.229520900312872E-01  9.027901926734254E+00 -1.509736650814765E-01
  -8.124982592239070E-03  2.016520238508804E-03 -6.611018767039529E-04
2452789.500000000 = A.D. 2003-May-30 00:00:00.0000 TDB 
  -2.655689980341919E-01  9.025605920047715E+00 -1.477200515071976E-01
  -7.171460709045353E-03 -2.645967339652960E-03  1.640877076836701E-03
2452794.500000000 = A.D. 2003-Jun-04 00:00:00.0000 TDB 
  -2.880093546055813E-01  9.014156394279883E+00 -1.417797768217268E-01
  -2.641219902105865E-03 -4.869462430494297E-04  7.138574666254383E-05
2452799.500000000 = A.D. 2003-Jun-09 00:00:00.0000 TDB 
  -3.093809023191323E-01  9.022833358011498E+00 -1.463717602916847E-01
  -7.114016900142862E-03  2.540446049789613E-03 -1.058096847758204E-03
